{
  "type": "FeatureCollection",
  "features": [
    {
      "type": "Feature",
      "properties": {
        "norad_id": 40069,
        "name": "METEOR-M 2",
        "group": "weather",
        "lat": -7.562013532315686,
        "lon": -38.66205506130459,
        "alt_km": 826.7250768839767,
        "timestamp": "2025-12-08T10:52:02.591172+00:00",
        "meta_object_name": "METEOR-M 2",
        "meta_object_id": "2014-037A",
        "meta_epoch": "2025-12-07T23:04:37.571808",
        "meta_mean_motion": 14.21383509,
        "meta_eccentricity": 0.00048525,
        "meta_inclination": 98.4898,
        "meta_ra_of_asc_node": 319.7294,
        "meta_arg_of_pericenter": 224.9867,
        "meta_mean_anomaly": 135.0919,
        "meta_ephemeris_type": 0,
        "meta_classification_type": "U",
        "meta_norad_cat_id": 40069,
        "meta_element_set_no": 999,
        "meta_rev_at_epoch": 59215,
        "meta_bstar": 0.00013499211,
        "meta_mean_motion_dot": 2.53e-06,
        "meta_mean_motion_ddot": 0,
        "tle_line1": "1 40069U 14037A   25341.96154597  .00000253  00000+0  13499-3 0  9993",
        "tle_line2": "2 40069  98.4898 319.7294 0004852 224.9867 135.0919 14.21383509592155"
      },
      "geometry": {
        "type": "Point",
        "coordinates": [
          -38.66205506130459,
          -7.562013532315686
        ]
      }
    },
    {
      "type": "Feature",
      "properties": {
        "norad_id": 40267,
        "name": "HIMAWARI-8",
        "group": "weather",
        "lat": -0.028734059166442207,
        "lon": 21.141939054583574,
        "alt_km": 35786.995204028965,
        "timestamp": "2025-12-08T10:52:02.591184+00:00",
        "meta_object_name": "HIMAWARI-8",
        "meta_object_id": "2014-060A",
        "meta_epoch": "2025-12-07T22:51:34.164864",
        "meta_mean_motion": 1.00269403,
        "meta_eccentricity": 0.00013437,
        "meta_inclination": 0.0504,
        "meta_ra_of_asc_node": 135.4496,
        "meta_arg_of_pericenter": 154.0261,
        "meta_mean_anomaly": 271.0486,
        "meta_ephemeris_type": 0,
        "meta_classification_type": "U",
        "meta_norad_cat_id": 40267,
        "meta_element_set_no": 999,
        "meta_rev_at_epoch": 4084,
        "meta_bstar": 0,
        "meta_mean_motion_dot": -2.73e-06,
        "meta_mean_motion_ddot": 0,
        "tle_line1": "1 40267U 14060A   25341.95247876 -.00000273  00000+0  00000+0 0  9994",
        "tle_line2": "2 40267   0.0504 135.4496 0001343 154.0261 271.0486  1.00269403 40841"
      },
      "geometry": {
        "type": "Point",
        "coordinates": [
          21.141939054583574,
          -0.028734059166442207
        ]
      }
    },
    {
      "type": "Feature",
      "properties": {
        "norad_id": 40367,
        "name": "FENGYUN 2G",
        "group": "weather",
        "lat": -5.142232237717625,
        "lon": -19.881911385290596,
        "alt_km": 35783.59035163474,
        "timestamp": "2025-12-08T10:52:02.591211+00:00",
        "meta_object_name": "FENGYUN 2G",
        "meta_object_id": "2014-090A",
        "meta_epoch": "2025-12-07T19:14:37.154688",
        "meta_mean_motion": 1.00265807,
        "meta_eccentricity": 0.00031202,
        "meta_inclination": 5.1554,
        "meta_ra_of_asc_node": 75.1544,
        "meta_arg_of_pericenter": 196.9461,
        "meta_mean_anomaly": 193.0185,
        "meta_ephemeris_type": 0,
        "meta_classification_type": "U",
        "meta_norad_cat_id": 40367,
        "meta_element_set_no": 999,
        "meta_rev_at_epoch": 4008,
        "meta_bstar": 0,
        "meta_mean_motion_dot": -3e-06,
        "meta_mean_motion_ddot": 0,
        "tle_line1": "1 40367U 14090A   25341.80181892 -.00000300  00000+0  00000+0 0  9998",
        "tle_line2": "2 40367   5.1554  75.1544 0003120 196.9461 193.0185  1.00265807 40088"
      },
      "geometry": {
        "type": "Point",
        "coordinates": [
          -19.881911385290596,
          -5.142232237717625
        ]
      }
    },
    {
      "type": "Feature",
      "properties": {
        "norad_id": 40732,
        "name": "METEOSAT-11 (MSG-4)",
        "group": "weather",
        "lat": 0.0807344243692607,
        "lon": -110.15555241718661,
        "alt_km": 35785.420358770185,
        "timestamp": "2025-12-08T10:52:02.591227+00:00",
        "meta_object_name": "METEOSAT-11 (MSG-4)",
        "meta_object_id": "2015-034A",
        "meta_epoch": "2025-12-07T22:14:22.726752",
        "meta_mean_motion": 1.0026599,
        "meta_eccentricity": 9.792e-05,
        "meta_inclination": 2.7233,
        "meta_ra_of_asc_node": 72.0159,
        "meta_arg_of_pericenter": 120.5352,
        "meta_mean_anomaly": 227.3586,
        "meta_ephemeris_type": 0,
        "meta_classification_type": "U",
        "meta_norad_cat_id": 40732,
        "meta_element_set_no": 999,
        "meta_rev_at_epoch": 529,
        "meta_bstar": 0,
        "meta_mean_motion_dot": 6.4e-07,
        "meta_mean_motion_ddot": 0,
        "tle_line1": "1 40732U 15034A   25341.92665193  .00000064  00000+0  00000+0 0  9993",
        "tle_line2": "2 40732   2.7233  72.0159 0000979 120.5352 227.3586  1.00265990  5293"
      },
      "geometry": {
        "type": "Point",
        "coordinates": [
          -110.15555241718661,
          0.0807344243692607
        ]
      }
    },
    {
      "type": "Feature",
      "properties": {
        "norad_id": 41105,
        "name": "ELEKTRO-L 2",
        "group": "weather",
        "lat": 2.7945138609897957,
        "lon": -133.9310130553362,
        "alt_km": 35774.58667055486,
        "timestamp": "2025-12-08T10:52:02.591240+00:00",
        "meta_object_name": "ELEKTRO-L 2",
        "meta_object_id": "2015-074A",
        "meta_epoch": "2025-12-07T01:34:48.213120",
        "meta_mean_motion": 1.00272049,
        "meta_eccentricity": 0.00039152,
        "meta_inclination": 6.2111,
        "meta_ra_of_asc_node": 72.8948,
        "meta_arg_of_pericenter": 201.1648,
        "meta_mean_anomaly": 171.2246,
        "meta_ephemeris_type": 0,
        "meta_classification_type": "U",
        "meta_norad_cat_id": 41105,
        "meta_element_set_no": 999,
        "meta_rev_at_epoch": 3658,
        "meta_bstar": 0,
        "meta_mean_motion_dot": -1.15e-06,
        "meta_mean_motion_ddot": 0,
        "tle_line1": "1 41105U 15074A   25341.06583580 -.00000115  00000+0  00000+0 0  9994",
        "tle_line2": "2 41105   6.2111  72.8948 0003915 201.1648 171.2246  1.00272049 36582"
      },
      "geometry": {
        "type": "Point",
        "coordinates": [
          -133.9310130553362,
          2.7945138609897957
        ]
      }
    },
    {
      "type": "Feature",
      "properties": {
        "norad_id": 41752,
        "name": "INSAT-3DR",
        "group": "weather",
        "lat": -0.06844240396556543,
        "lon": -45.407313187359215,
        "alt_km": 35742.68149705465,
        "timestamp": "2025-12-08T10:52:02.591253+00:00",
        "meta_object_name": "INSAT-3DR",
        "meta_object_id": "2016-054A",
        "meta_epoch": "2025-12-07T21:55:38.755200",
        "meta_mean_motion": 1.00270087,
        "meta_eccentricity": 0.00145628,
        "meta_inclination": 0.0802,
        "meta_ra_of_asc_node": 87.0128,
        "meta_arg_of_pericenter": 182.9806,
        "meta_mean_anomaly": 209.8589,
        "meta_ephemeris_type": 0,
        "meta_classification_type": "U",
        "meta_norad_cat_id": 41752,
        "meta_element_set_no": 999,
        "meta_rev_at_epoch": 3390,
        "meta_bstar": 0,
        "meta_mean_motion_dot": -7.4e-07,
        "meta_mean_motion_ddot": 0,
        "tle_line1": "1 41752U 16054A   25341.91364300 -.00000074  00000+0  00000+0 0  9996",
        "tle_line2": "2 41752   0.0802  87.0128 0014562 182.9806 209.8589  1.00270087 33900"
      },
      "geometry": {
        "type": "Point",
        "coordinates": [
          -45.407313187359215,
          -0.06844240396556543
        ]
      }
    },
    {
      "type": "Feature",
      "properties": {
        "norad_id": 41836,
        "name": "HIMAWARI-9",
        "group": "weather",
        "lat": 0.000864698848916822,
        "lon": 21.253614027591688,
        "alt_km": 35787.77556627458,
        "timestamp": "2025-12-08T10:52:02.591266+00:00",
        "meta_object_name": "HIMAWARI-9",
        "meta_object_id": "2016-064A",
        "meta_epoch": "2025-12-07T20:39:38.484576",
        "meta_mean_motion": 1.00273365,
        "meta_eccentricity": 0.00013287,
        "meta_inclination": 0.0157,
        "meta_ra_of_asc_node": 58.6459,
        "meta_arg_of_pericenter": 211.0672,
        "meta_mean_anomaly": 257.8442,
        "meta_ephemeris_type": 0,
        "meta_classification_type": "U",
        "meta_norad_cat_id": 41836,
        "meta_element_set_no": 999,
        "meta_rev_at_epoch": 3329,
        "meta_bstar": 0,
        "meta_mean_motion_dot": -2.71e-06,
        "meta_mean_motion_ddot": 0,
        "tle_line1": "1 41836U 16064A   25341.86086209 -.00000271  00000+0  00000+0 0  9992",
        "tle_line2": "2 41836   0.0157  58.6459 0001328 211.0672 257.8442  1.00273365 33293"
      },
      "geometry": {
        "type": "Point",
        "coordinates": [
          21.253614027591688,
          0.000864698848916822
        ]
      }
    }
  ]
}